H1 CPF 01  gfz 2021 02 18 13  5492 tandemx   
H2 1003001  6202 36605    2021 02 18 12 59 42 2021 02 23 00 00 42   120 1 1  0 0 0
H9
10 0 59267  32382.000000  0   -3919398.788   2978003.539  -4827074.913
10 0 59267  32502.000000  0   -4253019.033   3499263.099  -4146249.617
10 0 59267  32622.000000  0   -4504009.738   3964754.877  -3392770.871
10 0 59267  32742.000000  0   -4668979.272   4364828.944  -2579776.596
10 0 59267  32862.000000  0   -4746190.081   4690917.941  -1721481.152
10 0 59267  32982.000000  0   -4735577.702   4935724.273   -832928.486
10 0 59267  33102.000000  0   -4638737.233   5093386.145     70274.749
10 0 59267  33222.000000  0   -4458873.954   5159616.424    972240.025
10 0 59267  33342.000000  0   -4200723.253   5131810.954   1857084.889
10 0 59267  33462.000000  0   -3870437.312   5009122.003   2709223.334
10 0 59267  33582.000000  0   -3475442.980   4792495.532   3513648.564
10 0 59267  33702.000000  0   -3024275.748   4484672.537   4256202.891
10 0 59267  33822.000000  0   -2526394.490   4090154.682   4923830.731
10 0 59267  33942.000000  0   -1991980.355   3615134.129   5504809.300
10 0 59267  34062.000000  0   -1431725.477   3067389.841   5988952.433
10 0 59267  34182.000000  0    -856616.227   2456153.423   6367784.355
10 0 59267  34302.000000  0    -277716.856   1791947.727   6634680.783
10 0 59267  34422.000000  0     294042.641   1086402.915   6784979.240
10 0 59267  34542.000000  0     848072.766    352050.638   6816055.352
10 0 59267  34662.000000  0    1374319.580   -397897.965   6727365.341
10 0 59267  34782.000000  0    1863446.333  -1149789.282   6520455.937
10 0 59267  34902.000000  0    2306999.018  -1889775.188   6198939.112
10 0 59267  35022.000000  0    2697553.714  -2604068.014   5768434.102
10 0 59267  35142.000000  0    3028843.411  -3279199.006   5236474.455
10 0 59267  35262.000000  0    3295860.890  -3902275.149   4612381.889
10 0 59267  35382.000000  0    3494937.303  -4461229.959   3907108.598
10 0 59267  35502.000000  0    3623794.030  -4945063.619   3133047.867
10 0 59267  35622.000000  0    3681565.843  -5344065.803   2303816.869
10 0 59267  35742.000000  0    3668795.303  -5650016.780   1434014.731
10 0 59267  35862.000000  0    3587397.812  -5856361.038    538960.218
10 0 59267  35982.000000  0    3440598.383  -5958348.155   -365584.412
10 0 59267  36102.000000  0    3232842.771  -5953140.458  -1263699.572
10 0 59267  36222.000000  0    2969681.477  -5839880.048  -2139598.276
10 0 59267  36342.000000  0    2657633.259  -5619716.605  -2977910.359
10 0 59267  36462.000000  0    2304030.629  -5295794.522  -3763958.212
10 0 59267  36582.000000  0    1916850.641  -4873199.514  -4484015.887
10 0 59267  36702.000000  0    1504536.550  -4358867.609  -5125545.318
10 0 59267  36822.000000  0    1075816.464  -3761460.767  -5677407.822
10 0 59267  36942.000000  0     639521.257  -3091211.879  -6130048.357
10 0 59267  37062.000000  0     204405.371  -2359742.950  -6475649.753
10 0 59267  37182.000000  0    -221025.257  -1579860.113  -6708256.370
10 0 59267  37302.000000  0    -628674.897   -765329.340  -6823866.652
10 0 59267  37422.000000  0   -1011007.215     69363.804  -6820494.541
10 0 59267  37542.000000  0   -1361180.964    909266.113  -6698198.757
10 0 59267  37662.000000  0   -1673169.518   1739217.522  -6459081.728
10 0 59267  37782.000000  0   -1941862.180   2544117.714  -6107257.248
10 0 59267  37902.000000  0   -2163147.635   3309195.638  -5648788.838
10 0 59267  38022.000000  0   -2333977.169   4020278.544  -5091595.506
10 0 59267  38142.000000  0   -2452407.218   4664055.932  -4445326.989
10 0 59267  38262.000000  0   -2517620.058   5228333.761  -3721206.666
10 0 59267  38382.000000  0   -2529920.983   5702271.680  -2931844.637
10 0 59267  38502.000000  0   -2490712.221   6076600.096  -2091025.633
10 0 59267  38622.000000  0   -2402444.386   6343812.865  -1213470.893
10 0 59267  38742.000000  0   -2268545.487   6498326.278   -314578.822
10 0 59267  38862.000000  0   -2093329.899   6536604.327    589847.705
10 0 59267  38982.000000  0   -1881888.254   6457245.855   1483888.683
10 0 59267  39102.000000  0   -1639959.302   6261023.906   2351798.767
10 0 59267  39222.000000  0   -1373789.064   5950880.722   3178292.825
10 0 59267  39342.000000  0   -1089981.710   5531880.302   3948821.206
10 0 59267  39462.000000  0    -795345.994   5011120.085   4649830.840
10 0 59267  39582.000000  0    -496738.732   4397600.899   5269007.298
10 0 59267  39702.000000  0    -200910.007   3702060.808   5795487.890
10 0 59267  39822.000000  0      85643.805   2936779.574   6220049.171
10 0 59267  39942.000000  0     356818.350   2115353.632   6535263.072
10 0 59267  40062.000000  0     607027.944   1252449.960   6735620.840
10 0 59267  40182.000000  0     831318.138    363540.836   6817623.522
10 0 59267  40302.000000  0    1025462.072   -535373.250   6779838.529
10 0 59267  40422.000000  0    1186039.401  -1428050.827   6622924.384
10 0 59267  40542.000000  0    1310496.667  -2298302.614   6349620.211
10 0 59267  40662.000000  0    1397188.029  -3130285.554   5964701.491
10 0 59267  40782.000000  0    1445395.343  -3908793.711   5474900.940
10 0 59267  40902.000000  0    1455327.723  -4619538.772   4888795.178
10 0 59267  41022.000000  0    1428101.551  -5249416.726   4216661.183
10 0 59267  41142.000000  0    1365700.334  -5786758.697   3470301.753
10 0 59267  41262.000000  0    1270914.982  -6221557.041   2662838.927
10 0 59267  41382.000000  0    1147265.431  -6545660.121   1808482.492
10 0 59267  41502.000000  0     998905.336  -6752934.373    922277.391
10 0 59267  41622.000000  0     830512.881  -6839387.955     19832.878
10 0 59267  41742.000000  0     647168.710  -6803252.478   -882962.053
10 0 59267  41862.000000  0     454224.699  -6645016.538  -1770229.197
10 0 59267  41982.000000  0     257169.110  -6367413.220  -2626387.997
10 0 59267  42102.000000  0      61490.368  -5975364.479  -3436434.350
10 0 59267  42222.000000  0    -127457.512  -5475883.122  -4186206.845
10 0 59267  42342.000000  0    -304584.462  -4877933.878  -4862633.827
10 0 59267  42462.000000  0    -465185.405  -4192259.809  -5453955.860
10 0 59267  42582.000000  0    -605050.311  -3431178.641  -5949922.223
10 0 59267  42702.000000  0    -720560.671  -2608353.390  -6341958.284
10 0 59267  42822.000000  0    -808771.109  -1738542.440  -6623302.332
10 0 59267  42942.000000  0    -867474.792   -837334.532  -6789110.873
10 0 59267  43062.000000  0    -895251.803     79127.453  -6836533.600
10 0 59267  43182.000000  0    -891499.204    994430.124  -6764755.955
10 0 59267  43302.000000  0    -856443.081   1892175.605  -6575011.275
10 0 59267  43422.000000  0    -791132.547   2756267.653  -6270561.911
10 0 59267  43542.000000  0    -697415.157   3571194.608  -5856650.670
10 0 59267  43662.000000  0    -577894.319   4322306.105  -5340420.086
10 0 59267  43782.000000  0    -435868.959   4996077.215  -4730800.357
10 0 59267  43902.000000  0    -275257.125   5580357.677  -4038366.397
10 0 59267  44022.000000  0    -100504.126   6064599.854  -3275163.752
10 0 59267  44142.000000  0      83523.227   6440059.962  -2454506.355
10 0 59267  44262.000000  0     271653.957   6699968.727  -1590748.474
10 0 59267  44382.000000  0     458539.319   6839666.354   -699033.744
10 0 59267  44502.000000  0     638785.520   6856697.102    204974.025
10 0 59267  44622.000000  0     807089.487   6750860.473   1105372.824
10 0 59267  44742.000000  0     958373.511   6524216.342   1986310.714
10 0 59267  44862.000000  0    1087914.156   6181044.607   2832273.257
10 0 59267  44982.000000  0    1191463.763   5727762.001   3628364.117
10 0 59267  45102.000000  0    1265361.709   5172795.359   4360573.839
10 0 59267  45222.000000  0    1306633.611   4526417.334   5016031.592
10 0 59267  45342.000000  0    1313070.993   3800542.655   5583232.921
10 0 59267  45462.000000  0    1283295.695   3008499.109   6052235.701
10 0 59267  45582.000000  0    1216804.919   2164776.218   6414830.231
10 0 59267  45702.000000  0    1113996.292   1284754.435   6664677.556
10 0 59267  45822.000000  0     976173.146    384420.840   6797413.960
10 0 59267  45942.000000  0     805529.706   -519921.079   6810721.523
10 0 59267  46062.000000  0     605116.210  -1411945.784   6704367.682
10 0 59267  46182.000000  0     378784.258  -2275600.577   6480209.333
10 0 59267  46302.000000  0     131113.099  -3095394.961   6142162.831
10 0 59267  46422.000000  0    -132681.239  -3856680.394   5696137.564
10 0 59267  46542.000000  0    -406851.960  -4545912.671   5149936.963
10 0 59267  46662.000000  0    -685241.433  -5150897.036   4513130.336
10 0 59267  46782.000000  0    -961414.564  -5661013.988   3796892.298
10 0 59267  46902.000000  0   -1228801.978  -6067415.904   3013808.465
10 0 59267  47022.000000  0   -1480849.176  -6363189.468   2177654.450
10 0 59267  47142.000000  0   -1711168.725  -6543482.820   1303151.971
10 0 59267  47262.000000  0   -1913692.762  -6605592.069    405703.397
10 0 59267  47382.000000  0   -2082818.979  -6549003.684   -498887.908
10 0 59267  47502.000000  0   -2213547.879  -6375392.932  -1394704.699
10 0 59267  47622.000000  0   -2301608.145  -6088578.465  -2266004.246
10 0 59267  47742.000000  0   -2343567.048  -5694434.376  -3097502.262
10 0 59267  47862.000000  0   -2336922.734  -5200761.386  -3874646.171
10 0 59267  47982.000000  0   -2280175.995  -4617121.212  -4583870.617
10 0 59267  48102.000000  0   -2172880.494  -3954640.446  -5212830.393
10 0 59267  48222.000000  0   -2015671.093  -3225789.472  -5750608.199
10 0 59267  48342.000000  0   -1810269.959  -2444141.123  -6187895.273
10 0 59267  48462.000000  0   -1559469.820  -1624113.359  -6517141.983
10 0 59267  48582.000000  0   -1267095.689   -780702.365  -6732676.148
10 0 59267  48702.000000  0    -937946.831     70788.915  -6830790.138
10 0 59267  48822.000000  0    -577718.723    915022.609  -6809797.100
99
